{
  "type": "FeatureCollection",
  "features": [
    {
      "type": "Feature",
      "properties": {
        "norad_id": 66404,
        "name": "STARLINK-35691",
        "group": "last-30-days",
        "lat": -34.69946064527435,
        "lon": -103.8180782955318,
        "alt_km": 423.63790240099297,
        "timestamp": "2025-12-07T18:50:15.512869+00:00",
        "meta_object_name": "STARLINK-35691",
        "meta_object_id": "2025-257AA",
        "meta_epoch": "2025-12-07T03:33:03.888288",
        "meta_mean_motion": 15.4926064,
        "meta_eccentricity": 0.00017049,
        "meta_inclination": 53.1596,
        "meta_ra_of_asc_node": 290.5022,
        "meta_arg_of_pericenter": 106.4863,
        "meta_mean_anomaly": 253.6333,
        "meta_ephemeris_type": 0,
        "meta_classification_type": "U",
        "meta_norad_cat_id": 66404,
        "meta_element_set_no": 999,
        "meta_rev_at_epoch": 551,
        "meta_bstar": 0.0019210549,
        "meta_mean_motion_dot": 0.00107694,
        "meta_mean_motion_ddot": 0,
        "tle_line1": "1 66404U 25257AA  25341.14796167  .00107694  00000+0  19211-2 0  9999",
        "tle_line2": "2 66404  53.1596 290.5022 0001704 106.4863 253.6333 15.49260640  5514"
      },
      "geometry": {
        "type": "Point",
        "coordinates": [
          -103.8180782955318,
          -34.69946064527435
        ]
      }
    },
    {
      "type": "Feature",
      "properties": {
        "norad_id": 66405,
        "name": "STARLINK-35683",
        "group": "last-30-days",
        "lat": -33.286690859652985,
        "lon": -102.03438709099952,
        "alt_km": 422.2689085105103,
        "timestamp": "2025-12-07T18:50:15.512879+00:00",
        "meta_object_name": "STARLINK-35683",
        "meta_object_id": "2025-257AB",
        "meta_epoch": "2025-12-07T06:38:21.607872",
        "meta_mean_motion": 15.49385412,
        "meta_eccentricity": 9.049e-05,
        "meta_inclination": 53.1609,
        "meta_ra_of_asc_node": 289.8828,
        "meta_arg_of_pericenter": 40.8306,
        "meta_mean_anomaly": 319.2771,
        "meta_ephemeris_type": 0,
        "meta_classification_type": "U",
        "meta_norad_cat_id": 66405,
        "meta_element_set_no": 999,
        "meta_rev_at_epoch": 546,
        "meta_bstar": 0.0014787582,
        "meta_mean_motion_dot": 0.00082894,
        "meta_mean_motion_ddot": 0,
        "tle_line1": "1 66405U 25257AB  25341.27663898  .00082894  00000+0  14788-2 0  9996",
        "tle_line2": "2 66405  53.1609 289.8828 0000904  40.8306 319.2771 15.49385412  5463"
      },
      "geometry": {
        "type": "Point",
        "coordinates": [
          -102.03438709099952,
          -33.286690859652985
        ]
      }
    },
    {
      "type": "Feature",
      "properties": {
        "norad_id": 66406,
        "name": "STARLINK-34840",
        "group": "last-30-days",
        "lat": -29.217963595096457,
        "lon": -97.35333503538068,
        "alt_km": 422.48761419103994,
        "timestamp": "2025-12-07T18:50:15.512889+00:00",
        "meta_object_name": "STARLINK-34840",
        "meta_object_id": "2025-257AC",
        "meta_epoch": "2025-12-07T06:36:52.046496",
        "meta_mean_motion": 15.4933642,
        "meta_eccentricity": 0.00012255,
        "meta_inclination": 53.1588,
        "meta_ra_of_asc_node": 289.8753,
        "meta_arg_of_pericenter": 75.6016,
        "meta_mean_anomaly": 284.5129,
        "meta_ephemeris_type": 0,
        "meta_classification_type": "U",
        "meta_norad_cat_id": 66406,
        "meta_element_set_no": 999,
        "meta_rev_at_epoch": 547,
        "meta_bstar": 0.0018456505,
        "meta_mean_motion_dot": 0.00103672,
        "meta_mean_motion_ddot": 0,
        "tle_line1": "1 66406U 25257AC  25341.27560239  .00103672  00000+0  18457-2 0  9997",
        "tle_line2": "2 66406  53.1588 289.8753 0001225  75.6016 284.5129 15.49336420  5475"
      },
      "geometry": {
        "type": "Point",
        "coordinates": [
          -97.35333503538068,
          -29.217963595096457
        ]
      }
    },
    {
      "type": "Feature",
      "properties": {
        "norad_id": 66407,
        "name": "STARLINK-35686",
        "group": "last-30-days",
        "lat": -31.82207453726431,
        "lon": -100.2819917320355,
        "alt_km": 422.6462728946117,
        "timestamp": "2025-12-07T18:50:15.512900+00:00",
        "meta_object_name": "STARLINK-35686",
        "meta_object_id": "2025-257AD",
        "meta_epoch": "2025-12-07T06:37:50.728512",
        "meta_mean_motion": 15.49392932,
        "meta_eccentricity": 0.00012662,
        "meta_inclination": 53.1588,
        "meta_ra_of_asc_node": 289.8788,
        "meta_arg_of_pericenter": 98.048,
        "meta_mean_anomaly": 262.0672,
        "meta_ephemeris_type": 0,
        "meta_classification_type": "U",
        "meta_norad_cat_id": 66407,
        "meta_element_set_no": 999,
        "meta_rev_at_epoch": 553,
        "meta_bstar": 0.0027900349,
        "meta_mean_motion_dot": 0.00158374,
        "meta_mean_motion_ddot": 0,
        "tle_line1": "1 66407U 25257AD  25341.27628158  .00158374  00000+0  27900-2 0  9995",
        "tle_line2": "2 66407  53.1588 289.8788 0001266  98.0480 262.0672 15.49392932  5534"
      },
      "geometry": {
        "type": "Point",
        "coordinates": [
          -100.2819917320355,
          -31.82207453726431
        ]
      }
    },
    {
      "type": "Feature",
      "properties": {
        "norad_id": 66408,
        "name": "STARLINK-35679",
        "group": "last-30-days",
        "lat": -30.593444852600317,
        "lon": -98.86954910120676,
        "alt_km": 422.9155175927699,
        "timestamp": "2025-12-07T18:50:15.512910+00:00",
        "meta_object_name": "STARLINK-35679",
        "meta_object_id": "2025-257AE",
        "meta_epoch": "2025-12-07T05:04:27.952896",
        "meta_mean_motion": 15.49312249,
        "meta_eccentricity": 0.00011643,
        "meta_inclination": 53.1586,
        "meta_ra_of_asc_node": 290.1876,
        "meta_arg_of_pericenter": 106.4329,
        "meta_mean_anomaly": 253.6808,
        "meta_ephemeris_type": 0,
        "meta_classification_type": "U",
        "meta_norad_cat_id": 66408,
        "meta_element_set_no": 999,
        "meta_rev_at_epoch": 552,
        "meta_bstar": 0.0019260579,
        "meta_mean_motion_dot": 0.00108178,
        "meta_mean_motion_ddot": 0,
        "tle_line1": "1 66408U 25257AE  25341.21143464  .00108178  00000+0  19261-2 0  9990",
        "tle_line2": "2 66408  53.1586 290.1876 0001164 106.4329 253.6808 15.49312249  5528"
      },
      "geometry": {
        "type": "Point",
        "coordinates": [
          -98.86954910120676,
          -30.593444852600317
        ]
      }
    },
    {
      "type": "Feature",
      "properties": {
        "norad_id": 66409,
        "name": "CHUTIAN-2 A",
        "group": "last-30-days",
        "lat": 34.17530499970686,
        "lon": -127.6936659636949,
        "alt_km": 717.2044400216319,
        "timestamp": "2025-12-07T18:50:15.512920+00:00",
        "meta_object_name": "CHUTIAN-2 A",
        "meta_object_id": "2025-256A",
        "meta_epoch": "2025-12-07T06:34:31.354464",
        "meta_mean_motion": 14.49930829,
        "meta_eccentricity": 0.001342,
        "meta_inclination": 98.2777,
        "meta_ra_of_asc_node": 46.1318,
        "meta_arg_of_pericenter": 194.3287,
        "meta_mean_anomaly": 165.7528,
        "meta_ephemeris_type": 0,
        "meta_classification_type": "U",
        "meta_norad_cat_id": 66409,
        "meta_element_set_no": 999,
        "meta_rev_at_epoch": 408,
        "meta_bstar": 0.0003502438,
        "meta_mean_motion_dot": 1.312e-05,
        "meta_mean_motion_ddot": 0,
        "tle_line1": "1 66409U 25256A   25341.27397401  .00001312  00000+0  35024-3 0  9996",
        "tle_line2": "2 66409  98.2777  46.1318 0013420 194.3287 165.7528 14.49930829  4089"
      },
      "geometry": {
        "type": "Point",
        "coordinates": [
          -127.6936659636949,
          34.17530499970686
        ]
      }
    },
    {
      "type": "Feature",
      "properties": {
        "norad_id": 66410,
        "name": "CHUTIAN-2 B",
        "group": "last-30-days",
        "lat": -42.75124268889006,
        "lon": -141.0609210008272,
        "alt_km": 720.3919557527634,
        "timestamp": "2025-12-07T18:50:15.512931+00:00",
        "meta_object_name": "CHUTIAN-2 B",
        "meta_object_id": "2025-256B",
        "meta_epoch": "2025-12-07T06:13:37.987680",
        "meta_mean_motion": 14.51015508,
        "meta_eccentricity": 0.00134979,
        "meta_inclination": 98.2802,
        "meta_ra_of_asc_node": 46.1587,
        "meta_arg_of_pericenter": 198.0623,
        "meta_mean_anomaly": 162.0094,
        "meta_ephemeris_type": 0,
        "meta_classification_type": "U",
        "meta_norad_cat_id": 66410,
        "meta_element_set_no": 999,
        "meta_rev_at_epoch": 408,
        "meta_bstar": 0.00033640509,
        "meta_mean_motion_dot": 1.288e-05,
        "meta_mean_motion_ddot": 0,
        "tle_line1": "1 66410U 25256B   25341.25946745  .00001288  00000+0  33641-3 0  9992",
        "tle_line2": "2 66410  98.2802  46.1587 0013497 198.0623 162.0094 14.51015508  4086"
      },
      "geometry": {
        "type": "Point",
        "coordinates": [
          -141.0609210008272,
          -42.75124268889006
        ]
      }
    }
  ]
}